{
  "type": "FeatureCollection",
  "crs": {
    "type": "name",
    "properties": {
      "name": "urn:ogc:def:crs:OGC:1.3:CRS84"
    }
  },
  "features": [
    {
      "type": "Feature",
      "geometry": {
        "type": "Polygon",
        "coordinates": [
          [
            [
              77.4995,
              12.8
            ],
            [
              77.7305,
              12.8
            ],
            [
              77.78,
              12.852500000000001
            ],
            [
              77.78,
              13.0975
            ],
            [
              77.7305,
              13.15
            ],
            [
              77.4995,
              13.15
            ],
            [
              77.45,
              13.0975
            ],
            [
              77.45,
              12.852500000000001
            ],
            [
              77.4995,
              12.8
            ]
          ]
        ]
      },
      "properties": {
        "district_id": "9ac93da1-6843-5c03-abd4-b2a1c3fbf6ef",
        "name": "Bengaluru Urban",
        "state": "Karnataka",
        "country": "India",
        "population_ref": 9621551,
        "centroid_lon": 77.615,
        "centroid_lat": 12.975,
        "bbox": [
          77.45,
          12.8,
          77.78,
          13.15
        ],
        "crs": "EPSG:4326"
      }
    },
    {
      "type": "Feature",
      "geometry": {
        "type": "Polygon",
        "coordinates": [
          [
            [
              76.25,
              11.75
            ],
            [
              76.94999999999999,
              11.75
            ],
            [
              77.1,
              11.870000000000001
            ],
            [
              77.1,
              12.43
            ],
            [
              76.94999999999999,
              12.55
            ],
            [
              76.25,
              12.55
            ],
            [
              76.1,
              12.43
            ],
            [
              76.1,
              11.870000000000001
            ],
            [
              76.25,
              11.75
            ]
          ]
        ]
      },
      "properties": {
        "district_id": "bc555196-e3e5-58c7-8c08-30ebe00969d8",
        "name": "Mysuru",
        "state": "Karnataka",
        "country": "India",
        "population_ref": 3001127,
        "centroid_lon": 76.59999999999998,
        "centroid_lat": 12.15,
        "bbox": [
          76.1,
          11.75,
          77.1,
          12.55
        ],
        "crs": "EPSG:4326"
      }
    },
    {
      "type": "Feature",
      "geometry": {
        "type": "Polygon",
        "coordinates": [
          [
            [
              74.36500000000001,
              15.35
            ],
            [
              75.13499999999999,
              15.35
            ],
            [
              75.3,
              15.5375
            ],
            [
              75.3,
              16.4125
            ],
            [
              75.13499999999999,
              16.6
            ],
            [
              74.36500000000001,
              16.6
            ],
            [
              74.2,
              16.4125
            ],
            [
              74.2,
              15.5375
            ],
            [
              74.36500000000001,
              15.35
            ]
          ]
        ]
      },
      "properties": {
        "district_id": "430a7429-e3c3-5e76-b962-b18488e1270b",
        "name": "Belagavi",
        "state": "Karnataka",
        "country": "India",
        "population_ref": 4779661,
        "centroid_lon": 74.75,
        "centroid_lat": 15.975000000000001,
        "bbox": [
          74.2,
          15.35,
          75.3,
          16.6
        ],
        "crs": "EPSG:4326"
      }
    },
    {
      "type": "Feature",
      "geometry": {
        "type": "Polygon",
        "coordinates": [
          [
            [
              76.6725,
              16.8
            ],
            [
              77.4775,
              16.8
            ],
            [
              77.65,
              16.9425
            ],
            [
              77.65,
              17.6075
            ],
            [
              77.4775,
              17.75
            ],
            [
              76.6725,
              17.75
            ],
            [
              76.5,
              17.6075
            ],
            [
              76.5,
              16.9425
            ],
            [
              76.6725,
              16.8
            ]
          ]
        ]
      },
      "properties": {
        "district_id": "4bfb5ca4-5f2a-56bc-8f11-fffd4acb0784",
        "name": "Kalaburagi",
        "state": "Karnataka",
        "country": "India",
        "population_ref": 2566326,
        "centroid_lon": 77.07499999999999,
        "centroid_lat": 17.275000000000002,
        "bbox": [
          76.5,
          16.8,
          77.65,
          17.75
        ],
        "crs": "EPSG:4326"
      }
    },
    {
      "type": "Feature",
      "geometry": {
        "type": "Polygon",
        "coordinates": [
          [
            [
              80.20100000000001,
              12.98
            ],
            [
              80.29899999999999,
              12.98
            ],
            [
              80.32,
              13.013
            ],
            [
              80.32,
              13.167
            ],
            [
              80.29899999999999,
              13.2
            ],
            [
              80.20100000000001,
              13.2
            ],
            [
              80.18,
              13.167
            ],
            [
              80.18,
              13.013
            ],
            [
              80.20100000000001,
              12.98
            ]
          ]
        ]
      },
      "properties": {
        "district_id": "f08ea835-5b91-5746-bbc1-b1426c97c866",
        "name": "Chennai",
        "state": "Tamil Nadu",
        "country": "India",
        "population_ref": 4646732,
        "centroid_lon": 80.25000000000001,
        "centroid_lat": 13.089999999999998,
        "bbox": [
          80.18,
          12.98,
          80.32,
          13.2
        ],
        "crs": "EPSG:4326"
      }
    },
    {
      "type": "Feature",
      "geometry": {
        "type": "Polygon",
        "coordinates": [
          [
            [
              76.79,
              10.6
            ],
            [
              77.21,
              10.6
            ],
            [
              77.3,
              10.719999999999999
            ],
            [
              77.3,
              11.280000000000001
            ],
            [
              77.21,
              11.4
            ],
            [
              76.79,
              11.4
            ],
            [
              76.7,
              11.280000000000001
            ],
            [
              76.7,
              10.719999999999999
            ],
            [
              76.79,
              10.6
            ]
          ]
        ]
      },
      "properties": {
        "district_id": "b466bb28-25b4-5f21-8fe0-6840580cbbdc",
        "name": "Coimbatore",
        "state": "Tamil Nadu",
        "country": "India",
        "population_ref": 3458045,
        "centroid_lon": 77.0,
        "centroid_lat": 11.0,
        "bbox": [
          76.7,
          10.6,
          77.3,
          11.4
        ],
        "crs": "EPSG:4326"
      }
    },
    {
      "type": "Feature",
      "geometry": {
        "type": "Polygon",
        "coordinates": [
          [
            [
              77.925,
              9.7
            ],
            [
              78.27499999999999,
              9.7
            ],
            [
              78.35,
              9.7675
            ],
            [
              78.35,
              10.0825
            ],
            [
              78.27499999999999,
              10.15
            ],
            [
              77.925,
              10.15
            ],
            [
              77.85,
              10.0825
            ],
            [
              77.85,
              9.7675
            ],
            [
              77.925,
              9.7
            ]
          ]
        ]
      },
      "properties": {
        "district_id": "9189fae6-2c44-50f9-83ee-b9d3cd2584f7",
        "name": "Madurai",
        "state": "Tamil Nadu",
        "country": "India",
        "population_ref": 3038252,
        "centroid_lon": 78.10000000000001,
        "centroid_lat": 9.925000000000002,
        "bbox": [
          77.85,
          9.7,
          78.35,
          10.15
        ],
        "crs": "EPSG:4326"
      }
    },
    {
      "type": "Feature",
      "geometry": {
        "type": "Polygon",
        "coordinates": [
          [
            [
              79.69,
              12.45
            ],
            [
              80.11,
              12.45
            ],
            [
              80.2,
              12.54
            ],
            [
              80.2,
              12.96
            ],
            [
              80.11,
              13.05
            ],
            [
              79.69,
              13.05
            ],
            [
              79.6,
              12.96
            ],
            [
              79.6,
              12.54
            ],
            [
              79.69,
              12.45
            ]
          ]
        ]
      },
      "properties": {
        "district_id": "cec563bc-a69c-51a2-bbef-15d8c9632c88",
        "name": "Kanchipuram",
        "state": "Tamil Nadu",
        "country": "India",
        "population_ref": 3998252,
        "centroid_lon": 79.89999999999998,
        "centroid_lat": 12.749999999999998,
        "bbox": [
          79.6,
          12.45,
          80.2,
          13.05
        ],
        "crs": "EPSG:4326"
      }
    },
    {
      "type": "Feature",
      "geometry": {
        "type": "Polygon",
        "coordinates": [
          [
            [
              76.8175,
              8.25
            ],
            [
              77.13250000000001,
              8.25
            ],
            [
              77.2,
              8.34
            ],
            [
              77.2,
              8.76
            ],
            [
              77.13250000000001,
              8.85
            ],
            [
              76.8175,
              8.85
            ],
            [
              76.75,
              8.76
            ],
            [
              76.75,
              8.34
            ],
            [
              76.8175,
              8.25
            ]
          ]
        ]
      },
      "properties": {
        "district_id": "be49b3cd-c044-5d54-ad56-af44a9eecd7f",
        "name": "Thiruvananthapuram",
        "state": "Kerala",
        "country": "India",
        "population_ref": 3301427,
        "centroid_lon": 76.97499999999998,
        "centroid_lat": 8.55,
        "bbox": [
          76.75,
          8.25,
          77.2,
          8.85
        ],
        "crs": "EPSG:4326"
      }
    },
    {
      "type": "Feature",
      "geometry": {
        "type": "Polygon",
        "coordinates": [
          [
            [
              76.2625,
              9.8
            ],
            [
              76.78750000000001,
              9.8
            ],
            [
              76.9,
              9.8675
            ],
            [
              76.9,
              10.182500000000001
            ],
            [
              76.78750000000001,
              10.25
            ],
            [
              76.2625,
              10.25
            ],
            [
              76.15,
              10.182500000000001
            ],
            [
              76.15,
              9.8675
            ],
            [
              76.2625,
              9.8
            ]
          ]
        ]
      },
      "properties": {
        "district_id": "68547ca8-359e-5838-addb-752fb4404db3",
        "name": "Ernakulam",
        "state": "Kerala",
        "country": "India",
        "population_ref": 3282388,
        "centroid_lon": 76.525,
        "centroid_lat": 10.025,
        "bbox": [
          76.15,
          9.8,
          76.9,
          10.25
        ],
        "crs": "EPSG:4326"
      }
    },
    {
      "type": "Feature",
      "geometry": {
        "type": "Polygon",
        "coordinates": [
          [
            [
              75.8975,
              11.5
            ],
            [
              76.3525,
              11.5
            ],
            [
              76.45,
              11.575
            ],
            [
              76.45,
              11.925
            ],
            [
              76.3525,
              12.0
            ],
            [
              75.8975,
              12.0
            ],
            [
              75.8,
              11.925
            ],
            [
              75.8,
              11.575
            ],
            [
              75.8975,
              11.5
            ]
          ]
        ]
      },
      "properties": {
        "district_id": "a1391c31-9a46-546a-9965-2a77f10c8755",
        "name": "Wayanad",
        "state": "Kerala",
        "country": "India",
        "population_ref": 817420,
        "centroid_lon": 76.125,
        "centroid_lat": 11.75,
        "bbox": [
          75.8,
          11.5,
          76.45,
          12.0
        ],
        "crs": "EPSG:4326"
      }
    },
    {
      "type": "Feature",
      "geometry": {
        "type": "Polygon",
        "coordinates": [
          [
            [
              72.81,
              19.0
            ],
            [
              72.95,
              19.0
            ],
            [
              72.98,
              19.048000000000002
            ],
            [
              72.98,
              19.272
            ],
            [
              72.95,
              19.32
            ],
            [
              72.81,
              19.32
            ],
            [
              72.78,
              19.272
            ],
            [
              72.78,
              19.048000000000002
            ],
            [
              72.81,
              19.0
            ]
          ]
        ]
      },
      "properties": {
        "district_id": "dbc88fe8-d2e3-5a58-beae-49c0fc4da902",
        "name": "Mumbai Suburban",
        "state": "Maharashtra",
        "country": "India",
        "population_ref": 9356962,
        "centroid_lon": 72.88,
        "centroid_lat": 19.16,
        "bbox": [
          72.78,
          19.0,
          72.98,
          19.32
        ],
        "crs": "EPSG:4326"
      }
    },
    {
      "type": "Feature",
      "geometry": {
        "type": "Polygon",
        "coordinates": [
          [
            [
              73.57,
              18.0
            ],
            [
              74.83,
              18.0
            ],
            [
              75.1,
              18.1875
            ],
            [
              75.1,
              19.0625
            ],
            [
              74.83,
              19.25
            ],
            [
              73.57,
              19.25
            ],
            [
              73.3,
              19.0625
            ],
            [
              73.3,
              18.1875
            ],
            [
              73.57,
              18.0
            ]
          ]
        ]
      },
      "properties": {
        "district_id": "5b29a986-90af-5197-a716-6ca4eda07b8f",
        "name": "Pune",
        "state": "Maharashtra",
        "country": "India",
        "population_ref": 9429408,
        "centroid_lon": 74.19999999999999,
        "centroid_lat": 18.625,
        "bbox": [
          73.3,
          18.0,
          75.1,
          19.25
        ],
        "crs": "EPSG:4326"
      }
    },
    {
      "type": "Feature",
      "geometry": {
        "type": "Polygon",
        "coordinates": [
          [
            [
              78.66499999999999,
              20.6
            ],
            [
              79.435,
              20.6
            ],
            [
              79.6,
              20.7725
            ],
            [
              79.6,
              21.5775
            ],
            [
              79.435,
              21.75
            ],
            [
              78.66499999999999,
              21.75
            ],
            [
              78.5,
              21.5775
            ],
            [
              78.5,
              20.7725
            ],
            [
              78.66499999999999,
              20.6
            ]
          ]
        ]
      },
      "properties": {
        "district_id": "50fac2bc-0a2b-544f-9fd1-5e3a30a567f7",
        "name": "Nagpur",
        "state": "Maharashtra",
        "country": "India",
        "population_ref": 4653570,
        "centroid_lon": 79.04999999999998,
        "centroid_lat": 21.174999999999994,
        "bbox": [
          78.5,
          20.6,
          79.6,
          21.75
        ],
        "crs": "EPSG:4326"
      }
    },
    {
      "type": "Feature",
      "geometry": {
        "type": "Polygon",
        "coordinates": [
          [
            [
              79.93,
              18.7
            ],
            [
              80.77,
              18.7
            ],
            [
              80.95,
              19.0225
            ],
            [
              80.95,
              20.5275
            ],
            [
              80.77,
              20.85
            ],
            [
              79.93,
              20.85
            ],
            [
              79.75,
              20.5275
            ],
            [
              79.75,
              19.0225
            ],
            [
              79.93,
              18.7
            ]
          ]
        ]
      },
      "properties": {
        "district_id": "154ab132-1734-5de6-a523-0cf1551daf20",
        "name": "Gadchiroli",
        "state": "Maharashtra",
        "country": "India",
        "population_ref": 1072942,
        "centroid_lon": 80.35000000000001,
        "centroid_lat": 19.775000000000002,
        "bbox": [
          79.75,
          18.7,
          80.95,
          20.85
        ],
        "crs": "EPSG:4326"
      }
    },
    {
      "type": "Feature",
      "geometry": {
        "type": "Polygon",
        "coordinates": [
          [
            [
              72.08500000000001,
              22.3
            ],
            [
              72.71499999999999,
              22.3
            ],
            [
              72.85,
              22.4575
            ],
            [
              72.85,
              23.192500000000003
            ],
            [
              72.71499999999999,
              23.35
            ],
            [
              72.08500000000001,
              23.35
            ],
            [
              71.95,
              23.192500000000003
            ],
            [
              71.95,
              22.4575
            ],
            [
              72.08500000000001,
              22.3
            ]
          ]
        ]
      },
      "properties": {
        "district_id": "c6ebf98c-c48d-5b11-880e-6f65b6f955a3",
        "name": "Ahmedabad",
        "state": "Gujarat",
        "country": "India",
        "population_ref": 7214225,
        "centroid_lon": 72.4,
        "centroid_lat": 22.825000000000003,
        "bbox": [
          71.95,
          22.3,
          72.85,
          23.35
        ],
        "crs": "EPSG:4326"
      }
    },
    {
      "type": "Feature",
      "geometry": {
        "type": "Polygon",
        "coordinates": [
          [
            [
              72.705,
              20.9
            ],
            [
              73.195,
              20.9
            ],
            [
              73.3,
              20.99
            ],
            [
              73.3,
              21.41
            ],
            [
              73.195,
              21.5
            ],
            [
              72.705,
              21.5
            ],
            [
              72.6,
              21.41
            ],
            [
              72.6,
              20.99
            ],
            [
              72.705,
              20.9
            ]
          ]
        ]
      },
      "properties": {
        "district_id": "0cc05ad2-c44e-5be9-824b-025307f49cba",
        "name": "Surat",
        "state": "Gujarat",
        "country": "India",
        "population_ref": 6081322,
        "centroid_lon": 72.95,
        "centroid_lat": 21.2,
        "bbox": [
          72.6,
          20.9,
          73.3,
          21.5
        ],
        "crs": "EPSG:4326"
      }
    },
    {
      "type": "Feature",
      "geometry": {
        "type": "Polygon",
        "coordinates": [
          [
            [
              70.53500000000001,
              21.6
            ],
            [
              71.16499999999999,
              21.6
            ],
            [
              71.3,
              21.78
            ],
            [
              71.3,
              22.62
            ],
            [
              71.16499999999999,
              22.8
            ],
            [
              70.53500000000001,
              22.8
            ],
            [
              70.4,
              22.62
            ],
            [
              70.4,
              21.78
            ],
            [
              70.53500000000001,
              21.6
            ]
          ]
        ]
      },
      "properties": {
        "district_id": "f3ba0272-1e51-5635-bacd-41f19af695c2",
        "name": "Rajkot",
        "state": "Gujarat",
        "country": "India",
        "population_ref": 3804558,
        "centroid_lon": 70.85,
        "centroid_lat": 22.199999999999996,
        "bbox": [
          70.4,
          21.6,
          71.3,
          22.8
        ],
        "crs": "EPSG:4326"
      }
    },
    {
      "type": "Feature",
      "geometry": {
        "type": "Polygon",
        "coordinates": [
          [
            [
              73.03500000000001,
              21.8
            ],
            [
              73.66499999999999,
              21.8
            ],
            [
              73.8,
              21.92
            ],
            [
              73.8,
              22.48
            ],
            [
              73.66499999999999,
              22.6
            ],
            [
              73.03500000000001,
              22.6
            ],
            [
              72.9,
              22.48
            ],
            [
              72.9,
              21.92
            ],
            [
              73.03500000000001,
              21.8
            ]
          ]
        ]
      },
      "properties": {
        "district_id": "ae5df9b1-6cfe-584d-95ae-042ee1b6312c",
        "name": "Vadodara",
        "state": "Gujarat",
        "country": "India",
        "population_ref": 4165626,
        "centroid_lon": 73.35,
        "centroid_lat": 22.200000000000003,
        "bbox": [
          72.9,
          21.8,
          73.8,
          22.6
        ],
        "crs": "EPSG:4326"
      }
    },
    {
      "type": "Feature",
      "geometry": {
        "type": "Polygon",
        "coordinates": [
          [
            [
              82.775,
              25.15
            ],
            [
              83.125,
              25.15
            ],
            [
              83.2,
              25.217499999999998
            ],
            [
              83.2,
              25.532500000000002
            ],
            [
              83.125,
              25.6
            ],
            [
              82.775,
              25.6
            ],
            [
              82.7,
              25.532500000000002
            ],
            [
              82.7,
              25.217499999999998
            ],
            [
              82.775,
              25.15
            ]
          ]
        ]
      },
      "properties": {
        "district_id": "faebc021-fd22-5d8d-bfbc-9745202a3812",
        "name": "Varanasi",
        "state": "Uttar Pradesh",
        "country": "India",
        "population_ref": 3676841,
        "centroid_lon": 82.94999999999999,
        "centroid_lat": 25.374999999999993,
        "bbox": [
          82.7,
          25.15,
          83.2,
          25.6
        ],
        "crs": "EPSG:4326"
      }
    },
    {
      "type": "Feature",
      "geometry": {
        "type": "Polygon",
        "coordinates": [
          [
            [
              80.655,
              26.5
            ],
            [
              81.145,
              26.5
            ],
            [
              81.25,
              26.605
            ],
            [
              81.25,
              27.095
            ],
            [
              81.145,
              27.2
            ],
            [
              80.655,
              27.2
            ],
            [
              80.55,
              27.095
            ],
            [
              80.55,
              26.605
            ],
            [
              80.655,
              26.5
            ]
          ]
        ]
      },
      "properties": {
        "district_id": "ceacece6-e23f-59df-a424-c823beedf50f",
        "name": "Lucknow",
        "state": "Uttar Pradesh",
        "country": "India",
        "population_ref": 4589838,
        "centroid_lon": 80.9,
        "centroid_lat": 26.85,
        "bbox": [
          80.55,
          26.5,
          81.25,
          27.2
        ],
        "crs": "EPSG:4326"
      }
    },
    {
      "type": "Feature",
      "geometry": {
        "type": "Polygon",
        "coordinates": [
          [
            [
              83.205,
              26.35
            ],
            [
              83.695,
              26.35
            ],
            [
              83.8,
              26.462500000000002
            ],
            [
              83.8,
              26.9875
            ],
            [
              83.695,
              27.1
            ],
            [
              83.205,
              27.1
            ],
            [
              83.1,
              26.9875
            ],
            [
              83.1,
              26.462500000000002
            ],
            [
              83.205,
              26.35
            ]
          ]
        ]
      },
      "properties": {
        "district_id": "23d613dc-ccd0-50c1-bd16-dc1d618784af",
        "name": "Gorakhpur",
        "state": "Uttar Pradesh",
        "country": "India",
        "population_ref": 4440895,
        "centroid_lon": 83.44999999999999,
        "centroid_lat": 26.724999999999998,
        "bbox": [
          83.1,
          26.35,
          83.8,
          27.1
        ],
        "crs": "EPSG:4326"
      }
    },
    {
      "type": "Feature",
      "geometry": {
        "type": "Polygon",
        "coordinates": [
          [
            [
              81.2575,
              27.2
            ],
            [
              81.9925,
              27.2
            ],
            [
              82.15,
              27.342499999999998
            ],
            [
              82.15,
              28.0075
            ],
            [
              81.9925,
              28.15
            ],
            [
              81.2575,
              28.15
            ],
            [
              81.1,
              28.0075
            ],
            [
              81.1,
              27.342499999999998
            ],
            [
              81.2575,
              27.2
            ]
          ]
        ]
      },
      "properties": {
        "district_id": "50e0161d-c08d-5a20-b993-937df564320c",
        "name": "Bahraich",
        "state": "Uttar Pradesh",
        "country": "India",
        "population_ref": 3487731,
        "centroid_lon": 81.62500000000001,
        "centroid_lat": 27.675,
        "bbox": [
          81.1,
          27.2,
          82.15,
          28.15
        ],
        "crs": "EPSG:4326"
      }
    },
    {
      "type": "Feature",
      "geometry": {
        "type": "Polygon",
        "coordinates": [
          [
            [
              84.8575,
              25.2
            ],
            [
              85.5925,
              25.2
            ],
            [
              85.75,
              25.29
            ],
            [
              85.75,
              25.71
            ],
            [
              85.5925,
              25.8
            ],
            [
              84.8575,
              25.8
            ],
            [
              84.7,
              25.71
            ],
            [
              84.7,
              25.29
            ],
            [
              84.8575,
              25.2
            ]
          ]
        ]
      },
      "properties": {
        "district_id": "4d58f288-4d31-5ca7-b84f-5c16b5d2fa24",
        "name": "Patna",
        "state": "Bihar",
        "country": "India",
        "population_ref": 5838465,
        "centroid_lon": 85.22500000000001,
        "centroid_lat": 25.5,
        "bbox": [
          84.7,
          25.2,
          85.75,
          25.8
        ],
        "crs": "EPSG:4326"
      }
    },
    {
      "type": "Feature",
      "geometry": {
        "type": "Polygon",
        "coordinates": [
          [
            [
              84.465,
              24.3
            ],
            [
              85.235,
              24.3
            ],
            [
              85.4,
              24.42
            ],
            [
              85.4,
              24.98
            ],
            [
              85.235,
              25.1
            ],
            [
              84.465,
              25.1
            ],
            [
              84.3,
              24.98
            ],
            [
              84.3,
              24.42
            ],
            [
              84.465,
              24.3
            ]
          ]
        ]
      },
      "properties": {
        "district_id": "3f722ab9-b57f-5f81-8c85-b601bdfe367e",
        "name": "Gaya",
        "state": "Bihar",
        "country": "India",
        "population_ref": 4391418,
        "centroid_lon": 84.85000000000002,
        "centroid_lat": 24.700000000000003,
        "bbox": [
          84.3,
          24.3,
          85.4,
          25.1
        ],
        "crs": "EPSG:4326"
      }
    },
    {
      "type": "Feature",
      "geometry": {
        "type": "Polygon",
        "coordinates": [
          [
            [
              85.02000000000001,
              25.9
            ],
            [
              85.58,
              25.9
            ],
            [
              85.7,
              25.99
            ],
            [
              85.7,
              26.41
            ],
            [
              85.58,
              26.5
            ],
            [
              85.02000000000001,
              26.5
            ],
            [
              84.9,
              26.41
            ],
            [
              84.9,
              25.99
            ],
            [
              85.02000000000001,
              25.9
            ]
          ]
        ]
      },
      "properties": {
        "district_id": "6bbfdf5a-115f-5529-b073-572f7c4d1862",
        "name": "Muzaffarpur",
        "state": "Bihar",
        "country": "India",
        "population_ref": 4801062,
        "centroid_lon": 85.30000000000001,
        "centroid_lat": 26.2,
        "bbox": [
          84.9,
          25.9,
          85.7,
          26.5
        ],
        "crs": "EPSG:4326"
      }
    },
    {
      "type": "Feature",
      "geometry": {
        "type": "Polygon",
        "coordinates": [
          [
            [
              87.17,
              25.4
            ],
            [
              87.72999999999999,
              25.4
            ],
            [
              87.85,
              25.5125
            ],
            [
              87.85,
              26.037499999999998
            ],
            [
              87.72999999999999,
              26.15
            ],
            [
              87.17,
              26.15
            ],
            [
              87.05,
              26.037499999999998
            ],
            [
              87.05,
              25.5125
            ],
            [
              87.17,
              25.4
            ]
          ]
        ]
      },
      "properties": {
        "district_id": "78275107-0258-5a03-97cc-8e69b678a981",
        "name": "Purnia",
        "state": "Bihar",
        "country": "India",
        "population_ref": 3264619,
        "centroid_lon": 87.45000000000002,
        "centroid_lat": 25.774999999999995,
        "bbox": [
          87.05,
          25.4,
          87.85,
          26.15
        ],
        "crs": "EPSG:4326"
      }
    },
    {
      "type": "Feature",
      "geometry": {
        "type": "Polygon",
        "coordinates": [
          [
            [
              75.2725,
              26.4
            ],
            [
              76.0775,
              26.4
            ],
            [
              76.25,
              26.564999999999998
            ],
            [
              76.25,
              27.335
            ],
            [
              76.0775,
              27.5
            ],
            [
              75.2725,
              27.5
            ],
            [
              75.1,
              27.335
            ],
            [
              75.1,
              26.564999999999998
            ],
            [
              75.2725,
              26.4
            ]
          ]
        ]
      },
      "properties": {
        "district_id": "c597db33-6aac-565d-99e5-7bc7e3e72348",
        "name": "Jaipur",
        "state": "Rajasthan",
        "country": "India",
        "population_ref": 6626178,
        "centroid_lon": 75.675,
        "centroid_lat": 26.950000000000003,
        "bbox": [
          75.1,
          26.4,
          76.25,
          27.5
        ],
        "crs": "EPSG:4326"
      }
    },
    {
      "type": "Feature",
      "geometry": {
        "type": "Polygon",
        "coordinates": [
          [
            [
              72.085,
              25.9
            ],
            [
              73.415,
              25.9
            ],
            [
              73.7,
              26.154999999999998
            ],
            [
              73.7,
              27.345000000000002
            ],
            [
              73.415,
              27.6
            ],
            [
              72.085,
              27.6
            ],
            [
              71.8,
              27.345000000000002
            ],
            [
              71.8,
              26.154999999999998
            ],
            [
              72.085,
              25.9
            ]
          ]
        ]
      },
      "properties": {
        "district_id": "3e5db21c-0788-5db1-8366-e8dee8f4318c",
        "name": "Jodhpur",
        "state": "Rajasthan",
        "country": "India",
        "population_ref": 3687002,
        "centroid_lon": 72.75,
        "centroid_lat": 26.75,
        "bbox": [
          71.8,
          25.9,
          73.7,
          27.6
        ],
        "crs": "EPSG:4326"
      }
    },
    {
      "type": "Feature",
      "geometry": {
        "type": "Polygon",
        "coordinates": [
          [
            [
              73.28,
              23.8
            ],
            [
              74.11999999999999,
              23.8
            ],
            [
              74.3,
              23.98
            ],
            [
              74.3,
              24.82
            ],
            [
              74.11999999999999,
              25.0
            ],
            [
              73.28,
              25.0
            ],
            [
              73.1,
              24.82
            ],
            [
              73.1,
              23.98
            ],
            [
              73.28,
              23.8
            ]
          ]
        ]
      },
      "properties": {
        "district_id": "7249b7df-b387-5423-8bf0-0474f3813ca4",
        "name": "Udaipur",
        "state": "Rajasthan",
        "country": "India",
        "population_ref": 3068420,
        "centroid_lon": 73.69999999999999,
        "centroid_lat": 24.399999999999995,
        "bbox": [
          73.1,
          23.8,
          74.3,
          25.0
        ],
        "crs": "EPSG:4326"
      }
    },
    {
      "type": "Feature",
      "geometry": {
        "type": "Polygon",
        "coordinates": [
          [
            [
              69.92,
              26.0
            ],
            [
              71.88,
              26.0
            ],
            [
              72.3,
              26.3
            ],
            [
              72.3,
              27.7
            ],
            [
              71.88,
              28.0
            ],
            [
              69.92,
              28.0
            ],
            [
              69.5,
              27.7
            ],
            [
              69.5,
              26.3
            ],
            [
              69.92,
              26.0
            ]
          ]
        ]
      },
      "properties": {
        "district_id": "37209a96-fc5f-5d2b-a08c-12b01db6729c",
        "name": "Jaisalmer",
        "state": "Rajasthan",
        "country": "India",
        "population_ref": 669919,
        "centroid_lon": 70.90000000000002,
        "centroid_lat": 27.000000000000007,
        "bbox": [
          69.5,
          26.0,
          72.3,
          28.0
        ],
        "crs": "EPSG:4326"
      }
    },
    {
      "type": "Feature",
      "geometry": {
        "type": "Polygon",
        "coordinates": [
          [
            [
              88.28,
              22.45
            ],
            [
              88.42,
              22.45
            ],
            [
              88.45,
              22.48
            ],
            [
              88.45,
              22.619999999999997
            ],
            [
              88.42,
              22.65
            ],
            [
              88.28,
              22.65
            ],
            [
              88.25,
              22.619999999999997
            ],
            [
              88.25,
              22.48
            ],
            [
              88.28,
              22.45
            ]
          ]
        ]
      },
      "properties": {
        "district_id": "798c4568-fed1-595d-95ca-c925710b4abf",
        "name": "Kolkata",
        "state": "West Bengal",
        "country": "India",
        "population_ref": 4496694,
        "centroid_lon": 88.35000000000002,
        "centroid_lat": 22.55,
        "bbox": [
          88.25,
          22.45,
          88.45,
          22.65
        ],
        "crs": "EPSG:4326"
      }
    },
    {
      "type": "Feature",
      "geometry": {
        "type": "Polygon",
        "coordinates": [
          [
            [
              88.0475,
              26.5
            ],
            [
              88.5025,
              26.5
            ],
            [
              88.6,
              26.6125
            ],
            [
              88.6,
              27.1375
            ],
            [
              88.5025,
              27.25
            ],
            [
              88.0475,
              27.25
            ],
            [
              87.95,
              27.1375
            ],
            [
              87.95,
              26.6125
            ],
            [
              88.0475,
              26.5
            ]
          ]
        ]
      },
      "properties": {
        "district_id": "a0dc562f-ad75-5d78-a6d0-82290425383d",
        "name": "Darjeeling",
        "state": "West Bengal",
        "country": "India",
        "population_ref": 1846823,
        "centroid_lon": 88.275,
        "centroid_lat": 26.875000000000007,
        "bbox": [
          87.95,
          26.5,
          88.6,
          27.25
        ],
        "crs": "EPSG:4326"
      }
    },
    {
      "type": "Feature",
      "geometry": {
        "type": "Polygon",
        "coordinates": [
          [
            [
              87.95,
              23.7
            ],
            [
              88.64999999999999,
              23.7
            ],
            [
              88.8,
              23.8725
            ],
            [
              88.8,
              24.677500000000002
            ],
            [
              88.64999999999999,
              24.85
            ],
            [
              87.95,
              24.85
            ],
            [
              87.8,
              24.677500000000002
            ],
            [
              87.8,
              23.8725
            ],
            [
              87.95,
              23.7
            ]
          ]
        ]
      },
      "properties": {
        "district_id": "91176898-3bc4-5313-b318-84f50b989041",
        "name": "Murshidabad",
        "state": "West Bengal",
        "country": "India",
        "population_ref": 7103807,
        "centroid_lon": 88.3,
        "centroid_lat": 24.275000000000002,
        "bbox": [
          87.8,
          23.7,
          88.8,
          24.85
        ],
        "crs": "EPSG:4326"
      }
    },
    {
      "type": "Feature",
      "geometry": {
        "type": "Polygon",
        "coordinates": [
          [
            [
              77.18249999999999,
              23.05
            ],
            [
              77.56750000000001,
              23.05
            ],
            [
              77.65,
              23.14
            ],
            [
              77.65,
              23.56
            ],
            [
              77.56750000000001,
              23.65
            ],
            [
              77.18249999999999,
              23.65
            ],
            [
              77.1,
              23.56
            ],
            [
              77.1,
              23.14
            ],
            [
              77.18249999999999,
              23.05
            ]
          ]
        ]
      },
      "properties": {
        "district_id": "463ff51e-6c1a-5e06-998b-df299a850be2",
        "name": "Bhopal",
        "state": "Madhya Pradesh",
        "country": "India",
        "population_ref": 2371061,
        "centroid_lon": 77.37500000000001,
        "centroid_lat": 23.349999999999998,
        "bbox": [
          77.1,
          23.05,
          77.65,
          23.65
        ],
        "crs": "EPSG:4326"
      }
    },
    {
      "type": "Feature",
      "geometry": {
        "type": "Polygon",
        "coordinates": [
          [
            [
              75.5125,
              22.3
            ],
            [
              76.03750000000001,
              22.3
            ],
            [
              76.15,
              22.4125
            ],
            [
              76.15,
              22.9375
            ],
            [
              76.03750000000001,
              23.05
            ],
            [
              75.5125,
              23.05
            ],
            [
              75.4,
              22.9375
            ],
            [
              75.4,
              22.4125
            ],
            [
              75.5125,
              22.3
            ]
          ]
        ]
      },
      "properties": {
        "district_id": "a4ba1310-cf08-5574-b1a9-c0cab13983ce",
        "name": "Indore",
        "state": "Madhya Pradesh",
        "country": "India",
        "population_ref": 3276697,
        "centroid_lon": 75.77500000000002,
        "centroid_lat": 22.675000000000008,
        "bbox": [
          75.4,
          22.3,
          76.15,
          23.05
        ],
        "crs": "EPSG:4326"
      }
    },
    {
      "type": "Feature",
      "geometry": {
        "type": "Polygon",
        "coordinates": [
          [
            [
              79.75,
              22.8
            ],
            [
              80.44999999999999,
              22.8
            ],
            [
              80.6,
              22.935000000000002
            ],
            [
              80.6,
              23.564999999999998
            ],
            [
              80.44999999999999,
              23.7
            ],
            [
              79.75,
              23.7
            ],
            [
              79.6,
              23.564999999999998
            ],
            [
              79.6,
              22.935000000000002
            ],
            [
              79.75,
              22.8
            ]
          ]
        ]
      },
      "properties": {
        "district_id": "88aec8e2-b114-5d9f-aa08-8ef5b6d8b1ca",
        "name": "Jabalpur",
        "state": "Madhya Pradesh",
        "country": "India",
        "population_ref": 2463289,
        "centroid_lon": 80.1,
        "centroid_lat": 23.25,
        "bbox": [
          79.6,
          22.8,
          80.6,
          23.7
        ],
        "crs": "EPSG:4326"
      }
    },
    {
      "type": "Feature",
      "geometry": {
        "type": "Polygon",
        "coordinates": [
          [
            [
              79.82499999999999,
              21.3
            ],
            [
              80.875,
              21.3
            ],
            [
              81.1,
              21.465
            ],
            [
              81.1,
              22.235
            ],
            [
              80.875,
              22.4
            ],
            [
              79.82499999999999,
              22.4
            ],
            [
              79.6,
              22.235
            ],
            [
              79.6,
              21.465
            ],
            [
              79.82499999999999,
              21.3
            ]
          ]
        ]
      },
      "properties": {
        "district_id": "74552a0e-b876-5e94-822d-76ee983a5cc6",
        "name": "Balaghat",
        "state": "Madhya Pradesh",
        "country": "India",
        "population_ref": 1701698,
        "centroid_lon": 80.35000000000001,
        "centroid_lat": 21.849999999999998,
        "bbox": [
          79.6,
          21.3,
          81.1,
          22.4
        ],
        "crs": "EPSG:4326"
      }
    },
    {
      "type": "Feature",
      "geometry": {
        "type": "Polygon",
        "coordinates": [
          [
            [
              85.065,
              19.65
            ],
            [
              85.83500000000001,
              19.65
            ],
            [
              86.0,
              19.77
            ],
            [
              86.0,
              20.33
            ],
            [
              85.83500000000001,
              20.45
            ],
            [
              85.065,
              20.45
            ],
            [
              84.9,
              20.33
            ],
            [
              84.9,
              19.77
            ],
            [
              85.065,
              19.65
            ]
          ]
        ]
      },
      "properties": {
        "district_id": "245ef165-c8b5-55f9-909e-bd33165f7fd8",
        "name": "Khurda",
        "state": "Odisha",
        "country": "India",
        "population_ref": 2251673,
        "centroid_lon": 85.45,
        "centroid_lat": 20.049999999999997,
        "bbox": [
          84.9,
          19.65,
          86.0,
          20.45
        ],
        "crs": "EPSG:4326"
      }
    },
    {
      "type": "Feature",
      "geometry": {
        "type": "Polygon",
        "coordinates": [
          [
            [
              85.45,
              20.1
            ],
            [
              86.14999999999999,
              20.1
            ],
            [
              86.3,
              20.1975
            ],
            [
              86.3,
              20.6525
            ],
            [
              86.14999999999999,
              20.75
            ],
            [
              85.45,
              20.75
            ],
            [
              85.3,
              20.6525
            ],
            [
              85.3,
              20.1975
            ],
            [
              85.45,
              20.1
            ]
          ]
        ]
      },
      "properties": {
        "district_id": "445a89ee-0587-599c-be67-ee35808b9ea1",
        "name": "Cuttack",
        "state": "Odisha",
        "country": "India",
        "population_ref": 2624470,
        "centroid_lon": 85.8,
        "centroid_lat": 20.424999999999997,
        "bbox": [
          85.3,
          20.1,
          86.3,
          20.75
        ],
        "crs": "EPSG:4326"
      }
    },
    {
      "type": "Feature",
      "geometry": {
        "type": "Polygon",
        "coordinates": [
          [
            [
              82.695,
              19.3
            ],
            [
              83.605,
              19.3
            ],
            [
              83.8,
              19.48
            ],
            [
              83.8,
              20.32
            ],
            [
              83.605,
              20.5
            ],
            [
              82.695,
              20.5
            ],
            [
              82.5,
              20.32
            ],
            [
              82.5,
              19.48
            ],
            [
              82.695,
              19.3
            ]
          ]
        ]
      },
      "properties": {
        "district_id": "df84db23-62e2-5487-a0ff-488e809d5515",
        "name": "Kalahandi",
        "state": "Odisha",
        "country": "India",
        "population_ref": 1576869,
        "centroid_lon": 83.15000000000002,
        "centroid_lat": 19.900000000000002,
        "bbox": [
          82.5,
          19.3,
          83.8,
          20.5
        ],
        "crs": "EPSG:4326"
      }
    },
    {
      "type": "Feature",
      "geometry": {
        "type": "Polygon",
        "coordinates": [
          [
            [
              91.5825,
              25.9
            ],
            [
              91.9675,
              25.9
            ],
            [
              92.05,
              25.967499999999998
            ],
            [
              92.05,
              26.282500000000002
            ],
            [
              91.9675,
              26.35
            ],
            [
              91.5825,
              26.35
            ],
            [
              91.5,
              26.282500000000002
            ],
            [
              91.5,
              25.967499999999998
            ],
            [
              91.5825,
              25.9
            ]
          ]
        ]
      },
      "properties": {
        "district_id": "42dfe9f2-d86c-5623-8f3e-4837a9a29775",
        "name": "Kamrup Metropolitan",
        "state": "Assam",
        "country": "India",
        "population_ref": 1253938,
        "centroid_lon": 91.77499999999999,
        "centroid_lat": 26.124999999999996,
        "bbox": [
          91.5,
          25.9,
          92.05,
          26.35
        ],
        "crs": "EPSG:4326"
      }
    },
    {
      "type": "Feature",
      "geometry": {
        "type": "Polygon",
        "coordinates": [
          [
            [
              94.82000000000001,
              27.1
            ],
            [
              95.38,
              27.1
            ],
            [
              95.5,
              27.19
            ],
            [
              95.5,
              27.61
            ],
            [
              95.38,
              27.7
            ],
            [
              94.82000000000001,
              27.7
            ],
            [
              94.7,
              27.61
            ],
            [
              94.7,
              27.19
            ],
            [
              94.82000000000001,
              27.1
            ]
          ]
        ]
      },
      "properties": {
        "district_id": "09ad6ebf-3890-5e2f-b941-847d5abcb9e5",
        "name": "Dibrugarh",
        "state": "Assam",
        "country": "India",
        "population_ref": 1326335,
        "centroid_lon": 95.1,
        "centroid_lat": 27.400000000000002,
        "bbox": [
          94.7,
          27.1,
          95.5,
          27.7
        ],
        "crs": "EPSG:4326"
      }
    },
    {
      "type": "Feature",
      "geometry": {
        "type": "Polygon",
        "coordinates": [
          [
            [
              92.62,
              24.3
            ],
            [
              93.17999999999999,
              24.3
            ],
            [
              93.3,
              24.427500000000002
            ],
            [
              93.3,
              25.022499999999997
            ],
            [
              93.17999999999999,
              25.15
            ],
            [
              92.62,
              25.15
            ],
            [
              92.5,
              25.022499999999997
            ],
            [
              92.5,
              24.427500000000002
            ],
            [
              92.62,
              24.3
            ]
          ]
        ]
      },
      "properties": {
        "district_id": "74cf48ce-68fd-56f1-a056-ce8f08e44c63",
        "name": "Cachar",
        "state": "Assam",
        "country": "India",
        "population_ref": 1736617,
        "centroid_lon": 92.89999999999999,
        "centroid_lat": 24.724999999999994,
        "bbox": [
          92.5,
          24.3,
          93.3,
          25.15
        ],
        "crs": "EPSG:4326"
      }
    }
  ]
}